GLOBALSTAR M024         
1 25883U 99043A   25221.39769138 -.00000063  00000+0  59798-4 0  9990
2 25883  51.9989 260.5646 0001592 190.3677 182.5774 11.10164151120770
GLOBALSTAR M027         
1 25884U 99043B   25221.53638969 -.00000093  00000+0 -11265-2 0  9993
2 25884  52.0247 339.7435 0021998  78.6454 281.6809 11.04371967147135
GLOBALSTAR M054         
1 25885U 99043C   25221.41279676 -.00000156  00000+0 -21570-2 0  9997
2 25885  52.0136  98.3847 0004774 270.0462 261.3318 11.39222930125115
GLOBALSTAR M053         
1 25886U 99043D   25221.28459692 -.00000066  00000+0  75011-4 0  9991
2 25886  51.9996  48.7312 0003341 156.8346  13.8508 11.27666179125435
GLOBALSTAR M058         
1 25907U 99049A   25221.75445121 -.00000084  00000+0  12406-4 0  9994
2 25907  51.9969 326.1385 0002099  28.3266 331.7683 11.93200865159145
GLOBALSTAR M050         
1 25908U 99049B   25222.18238958 -.00000054  00000+0  39115-3 0  9993
2 25908  52.0015 328.6371 0009728 138.1000 260.5109 12.07455358159444
GLOBALSTAR M033         
1 25909U 99049C   25221.34541436 -.00000106  00000+0 -13861-3 0  9998
2 25909  51.9887 199.0921 0013851  11.9345 348.1828 12.20295387542236
GLOBALSTAR M055         
1 25910U 99049D   25221.67119869 -.00000101  00000+0 -57716-4 0  9990
2 25910  51.9993 206.3198 0006981 244.1495 115.8637 12.29430928175089
